{"type": "FeatureCollection", "features": [ {"type": "Feature", "properties": {"norad_id": 39574, "name": "GPM-CORE", "group": "resource", "lat": -32.92360605959174, "lon": -175.14833960232852, "alt_km": 436.56442665001487, "timestamp": "2025-12-15T19:00:45.003284+00:00", "meta": {"OBJECT_NAME": "GPM-CORE", "OBJECT_ID": "2014-009C", "EPOCH": "2025-12-14T21:24:56.094624", "MEAN_MOTION": 15.44502745, "ECCENTRICITY": 0.00097002, "INCLINATION": 64.9734, "RA_OF_ASC_NODE": 205.4726, "ARG_OF_PERICENTER": 246.0366, "MEAN_ANOMALY": 113.9759, "EPHEMERIS_TYPE": 0, "CLASSIFICATION_TYPE": "U", "NORAD_CAT_ID": 39574, "ELEMENT_SET_NO": 999, "REV_AT_EPOCH": 66934, "BSTAR": 0.00013113885, "MEAN_MOTION_DOT": 5.869e-05, "MEAN_MOTION_DDOT": 0}, "tle": {"line1": "1 39574U 14009C   25348.89231591  .00005869  00000+0  13114-3 0  9992", "line2": "2 39574  64.9734 205.4726 0009700 246.0366 113.9759 15.44502745669342"}}, "geometry": {"type": "Point", "coordinates": [-175.14833960232852, -32.92360605959174]}}, {"type": "Feature", "properties": {"norad_id": 39634, "name": "SENTINEL-1A", "group": "resource", "lat": -50.057250426983096, "lon": 4.880720672980018, "alt_km": 703.2572817532673, "timestamp": "2025-12-15T19:00:45.003294+00:00", "meta": {"OBJECT_NAME": "SENTINEL-1A", "OBJECT_ID": "2014-016A", "EPOCH": "2025-12-14T23:29:46.413888", "MEAN_MOTION": 14.59200486, "ECCENTRICITY": 0.00012469, "INCLINATION": 98.1808, "RA_OF_ASC_NODE": 354.1877, "ARG_OF_PERICENTER": 85.4109, "MEAN_ANOMALY": 274.7233, "EPHEMERIS_TYPE": 0, "CLASSIFICATION_TYPE": "U", "NORAD_CAT_ID": 39634, "ELEMENT_SET_NO": 999, "REV_AT_EPOCH": 62315, "BSTAR": 0.00011252245, "MEAN_MOTION_DOT": 4.85e-06, "MEAN_MOTION_DDOT": 0}, "tle": {"line1": "1 39634U 14016A   25348.97900942  .00000485  00000+0  11252-3 0  9999", "line2": "2 39634  98.1808 354.1877 0001246  85.4109 274.7233 14.59200486623150"}}, "geometry": {"type": "Point", "coordinates": [4.880720672980018, -50.057250426983096]}}, {"type": "Feature", "properties": {"norad_id": 39731, "name": "KAZEOSAT 1", "group": "resource", "lat": 79.8201021702371, "lon": -63.56022353484668, "alt_km": 743.4758712212952, "timestamp": "2025-12-15T19:00:45.003305+00:00", "meta": {"OBJECT_NAME": "KAZEOSAT 1", "OBJECT_ID": "2014-024A", "EPOCH": "2025-12-14T22:35:12.583968", "MEAN_MOTION": 14.42064325, "ECCENTRICITY": 0.00011414, "INCLINATION": 98.3431, "RA_OF_ASC_NODE": 60.7989, "ARG_OF_PERICENTER": 96.6148, "MEAN_ANOMALY": 263.5172, "EPHEMERIS_TYPE": 0, "CLASSIFICATION_TYPE": "U", "NORAD_CAT_ID": 39731, "ELEMENT_SET_NO": 999, "REV_AT_EPOCH": 61200, "BSTAR": 0.00010464472, "MEAN_MOTION_DOT": 3.01e-06, "MEAN_MOTION_DDOT": 0}, "tle": {"line1": "1 39731U 14024A   25348.94111787  .00000301  00000+0  10464-3 0  9995", "line2": "2 39731  98.3431  60.7989 0001141  96.6148 263.5172 14.42064325612009"}}, "geometry": {"type": "Point", "coordinates": [-63.56022353484668, 79.8201021702371]}}, {"type": "Feature", "properties": {"norad_id": 39766, "name": "ALOS-2", "group": "resource", "lat": 29.83279515724787, "lon": 80.0143844487718, "alt_km": 629.2128160483799, "timestamp": "2025-12-15T19:00:45.003315+00:00", "meta": {"OBJECT_NAME": "ALOS-2", "OBJECT_ID": "2014-029A", "EPOCH": "2025-12-15T10:45:38.494080", "MEAN_MOTION": 14.7946645, "ECCENTRICITY": 0.0001396, "INCLINATION": 97.9228, "RA_OF_ASC_NODE": 84.2561, "ARG_OF_PERICENTER": 102.692, "MEAN_ANOMALY": 257.4448, "EPHEMERIS_TYPE": 0, "CLASSIFICATION_TYPE": "U", "NORAD_CAT_ID": 39766, "ELEMENT_SET_NO": 999, "REV_AT_EPOCH": 62441, "BSTAR": 0.00030229, "MEAN_MOTION_DOT": 2.206e-05, "MEAN_MOTION_DDOT": 0}, "tle": {"line1": "1 39766U 14029A   25349.44836220  .00002206  00000+0  30229-3 0  9997", "line2": "2 39766  97.9228  84.2561 0001396 102.6920 257.4448 14.79466450624412"}}, "geometry": {"type": "Point", "coordinates": [80.0143844487718, 29.83279515724787]}}, {"type": "Feature", "properties": {"norad_id": 40010, "name": "KAZEOSAT 2", "group": "resource", "lat": 2.7974856911195767, "lon": -166.42259791705885, "alt_km": 621.0525697007133, "timestamp": "2025-12-15T19:00:45.003325+00:00", "meta": {"OBJECT_NAME": "KAZEOSAT 2", "OBJECT_ID": "2014-033A", "EPOCH": "2025-12-14T21:58:44.957568", "MEAN_MOTION": 14.85171782, "ECCENTRICITY": 0.00078533, "INCLINATION": 97.5508, "RA_OF_ASC_NODE": 193.1179, "ARG_OF_PERICENTER": 199.1027, "MEAN_ANOMALY": 160.9895, "EPHEMERIS_TYPE": 0, "CLASSIFICATION_TYPE": "U", "NORAD_CAT_ID": 40010, "ELEMENT_SET_NO": 999, "REV_AT_EPOCH": 62160, "BSTAR": 0.00010301089, "MEAN_MOTION_DOT": 8.32e-06, "MEAN_MOTION_DDOT": 0}, "tle": {"line1": "1 40010U 14033A   25348.91579812  .00000832  00000+0  10301-3 0  9990", "line2": "2 40010  97.5508 193.1179 0007853 199.1027 160.9895 14.85171782621601"}}, "geometry": {"type": "Point", "coordinates": [-166.42259791705885, 2.7974856911195767]}}, {"type": "Feature", "properties": {"norad_id": 40011, "name": "HODOYOSHI-4", "group": "resource", "lat": 63.05961015553743, "lon": 13.636234566184052, "alt_km": 595.1430736178108, "timestamp": "2025-12-15T19:00:45.003336+00:00", "meta": {"OBJECT_NAME": "HODOYOSHI-4", "OBJECT_ID": "2014-033B", "EPOCH": "2025-12-14T23:07:06.907296", "MEAN_MOTION": 14.87497059, "ECCENTRICITY": 0.00232773, "INCLINATION": 97.5417, "RA_OF_ASC_NODE": 177.7379, "ARG_OF_PERICENTER": 192.8079, "MEAN_ANOMALY": 167.255, "EPHEMERIS_TYPE": 0, "CLASSIFICATION_TYPE": "U", "NORAD_CAT_ID": 40011, "ELEMENT_SET_NO": 999, "REV_AT_EPOCH": 62141, "BSTAR": 0.00038039916, "MEAN_MOTION_DOT": 3.413e-05, "MEAN_MOTION_DDOT": 0}, "tle": {"line1": "1 40011U 14033B   25348.96327439  .00003413  00000+0  38040-3 0  9990", "line2": "2 40011  97.5417 177.7379 0023277 192.8079 167.2550 14.87497059621413"}}, "geometry": {"type": "Point", "coordinates": [13.636234566184052, 63.05961015553743]}}, {"type": "Feature", "properties": {"norad_id": 40013, "name": "DEIMOS-2", "group": "resource", "lat": -26.253674172752852, "lon": -130.72948797487263, "alt_km": 594.8248881562577, "timestamp": "2025-12-15T19:00:45.003346+00:00", "meta": {"OBJECT_NAME": "DEIMOS-2", "OBJECT_ID": "2014-033D", "EPOCH": "2025-12-14T22:13:12.856800", "MEAN_MOTION": 14.92982202, "ECCENTRICITY": 9.308e-05, "INCLINATION": 97.6064, "RA_OF_ASC_NODE": 224.6538, "ARG_OF_PERICENTER": 110.2638, "MEAN_ANOMALY": 249.8682, "EPHEMERIS_TYPE": 0, "CLASSIFICATION_TYPE": "U", "NORAD_CAT_ID": 40013, "ELEMENT_SET_NO": 999, "REV_AT_EPOCH": 61022, "BSTAR": 0.00012380869, "MEAN_MOTION_DOT": 1.232e-05, "MEAN_MOTION_DDOT": 0}, "tle": {"line1": "1 40013U 14033D   25348.92584325  .00001232  00000+0  12381-3 0  9994", "line2": "2 40013  97.6064 224.6538 0000930 110.2638 249.8682 14.92982202610224"}}, "geometry": {"type": "Point", "coordinates": [-130.72948797487263, -26.253674172752852]}}, {"type": "Feature", "properties": {"norad_id": 40015, "name": "HODOYOSHI-3", "group": "resource", "lat": 12.196449519896039, "lon": 153.83619958072975, "alt_km": 631.1839855080543, "timestamp": "2025-12-15T19:00:45.003356+00:00", "meta": {"OBJECT_NAME": "HODOYOSHI-3", "OBJECT_ID": "2014-033F", "EPOCH": "2025-12-14T21:55:52.740768", "MEAN_MOTION": 14.84814917, "ECCENTRICITY": 0.00319416, "INCLINATION": 97.6196, "RA_OF_ASC_NODE": 154.6544, "ARG_OF_PERICENTER": 240.4959, "MEAN_ANOMALY": 119.307, "EPHEMERIS_TYPE": 0, "CLASSIFICATION_TYPE": "U", "NORAD_CAT_ID": 40015, "ELEMENT_SET_NO": 999, "REV_AT_EPOCH": 62027, "BSTAR": 0.00016088812, "MEAN_MOTION_DOT": 1.325e-05, "MEAN_MOTION_DDOT": 0}, "tle": {"line1": "1 40015U 14033F   25348.91380487  .00001325  00000+0  16089-3 0  9990", "line2": "2 40015  97.6196 154.6544 0031941 240.4959 119.3070 14.84814917620275"}}, "geometry": {"type": "Point", "coordinates": [153.83619958072975, 12.196449519896039]}}, {"type": "Feature", "properties": {"norad_id": 40053, "name": "SPOT 7", "group": "resource", "lat": -10.85331606200972, "lon": -129.76554333940908, "alt_km": 695.3844175348613, "timestamp": "2025-12-15T19:00:45.003366+00:00", "meta": {"OBJECT_NAME": "SPOT 7", "OBJECT_ID": "2014-034A", "EPOCH": "2025-12-14T22:24:50.051232", "MEAN_MOTION": 14.60738036, "ECCENTRICITY": 0.00015748, "INCLINATION": 98.0906, "RA_OF_ASC_NODE": 50.9588, "ARG_OF_PERICENTER": 87.3945, "MEAN_ANOMALY": 272.7436, "EPHEMERIS_TYPE": 0, "CLASSIFICATION_TYPE": "U", "NORAD_CAT_ID": 40053, "ELEMENT_SET_NO": 999, "REV_AT_EPOCH": 61023, "BSTAR": 0.00017571236, "MEAN_MOTION_DOT": 8.11e-06, "MEAN_MOTION_DDOT": 0}, "tle": {"line1": "1 40053U 14034A   25348.93391263  .00000811  00000+0  17571-3 0  9995", "line2": "2 40053  98.0906  50.9588 0001574  87.3945 272.7436 14.60738036610235"}}, "geometry": {"type": "Point", "coordinates": [-129.76554333940908, -10.85331606200972]}}, {"type": "Feature", "properties": {"norad_id": 40072, "name": "SKYSAT-B", "group": "resource", "lat": 56.669475636111365, "lon": -79.2630221635002, "alt_km": 600.290650521355, "timestamp": "2025-12-15T19:00:45.003377+00:00", "meta": {"OBJECT_NAME": "SKYSAT-B", "OBJECT_ID": "2014-037D", "EPOCH": "2025-12-14T20:08:59.406144", "MEAN_MOTION": 14.87335626, "ECCENTRICITY": 0.00063174, "INCLINATION": 98.3608, "RA_OF_ASC_NODE": 292.6565, "ARG_OF_PERICENTER": 143.8455, "MEAN_ANOMALY": 216.3188, "EPHEMERIS_TYPE": 0, "CLASSIFICATION_TYPE": "U", "NORAD_CAT_ID": 40072, "ELEMENT_SET_NO": 999, "REV_AT_EPOCH": 61855, "BSTAR": 0.00016130482, "MEAN_MOTION_DOT": 1.396e-05, "MEAN_MOTION_DDOT": 0}, "tle": {"line1": "1 40072U 14037D   25348.83957646  .00001396  00000+0  16130-3 0  9990", "line2": "2 40072  98.3608 292.6565 0006317 143.8455 216.3188 14.87335626618550"}}, "geometry": {"type": "Point", "coordinates": [-79.2630221635002, 56.669475636111365]}}]}